start=new Date('2022-05-20T00:00:00.000Z').valueOf();
sats=[{"OBJECT_TYPE":"PAYLOAD","COUNTRY_CODE":"US","MEAN_MOTION_DDOT":"0.0000000000000","LAUNCH_DATE":"2022-01-19","APOAPSIS":"541.136","ECCENTRICITY":"0.00018320","GP_ID":"203989145","MEAN_MOTION":"15.08799689","SEMIMAJOR_AXIS":"6918.004","MEAN_ELEMENT_THEORY":"SGP4","EPOCH":"2022-05-19T22:00:00.999936","INCLINATION":"53.2125","FILE":"3453812","ELEMENT_SET_NO":"999","RCS_SIZE":"LARGE","TIME_SYSTEM":"UTC","CENTER_NAME":"EARTH","MEAN_MOTION_DOT":"-0.00006986","MEAN_ANOMALY":"46.3201","PERIOD":"95.440","EPHEMERIS_TYPE":"0","OBJECT_ID":"2022-005M","TLE_LINE1":"1 51115U 22005M   22139.91667824 -.00006986  00000-0 -42168-3 0  9997","TLE_LINE2":"2 51115  53.2125  48.0578 0001832  57.0427  46.3201 15.08799689  1306","NORAD_CAT_ID":"51115","SITE":"AFETR","CLASSIFICATION_TYPE":"U","PERIAPSIS":"538.601","REF_FRAME":"TEME","DECAY_DATE":null,"RA_OF_ASC_NODE":"48.0578","OBJECT_NAME":"STARLINK-3397","REV_AT_EPOCH":"130","ARG_OF_PERICENTER":"57.0427","BSTAR":"-0.00042168000000"},{"CENTER_NAME":"EARTH","TIME_SYSTEM":"UTC","ELEMENT_SET_NO":"999","RCS_SIZE":"LARGE","MEAN_ELEMENT_THEORY":"SGP4","SEMIMAJOR_AXIS":"6917.891","MEAN_MOTION":"15.08836374","FILE":"3453812","INCLINATION":"53.2122","EPOCH":"2022-05-19T22:00:00.999936","GP_ID":"203989395","ECCENTRICITY":"0.00018690","LAUNCH_DATE":"2022-01-19","APOAPSIS":"541.049","MEAN_MOTION_DDOT":"0.0000000000000","OBJECT_TYPE":"PAYLOAD","COUNTRY_CODE":"US","BSTAR":"-0.00181690000000","ARG_OF_PERICENTER":"48.7294","OBJECT_NAME":"STARLINK-3243","REV_AT_EPOCH":"130","DECAY_DATE":null,"RA_OF_ASC_NODE":"48.0572","REF_FRAME":"TEME","PERIAPSIS":"538.464","CLASSIFICATION_TYPE":"U","OBJECT_ID":"2022-005N","SITE":"AFETR","NORAD_CAT_ID":"51116","TLE_LINE1":"1 51116U 22005N   22139.91667824 -.00029085  00000-0 -18169-2 0  9996","TLE_LINE2":"2 51116  53.2122  48.0572 0001869  48.7294 334.5590 15.08836374  1303","EPHEMERIS_TYPE":"0","MEAN_ANOMALY":"334.5590","PERIOD":"95.438","MEAN_MOTION_DOT":"-0.00029085"},{"MEAN_MOTION_DOT":"0.00006620","MEAN_ANOMALY":"127.9802","PERIOD":"95.441","EPHEMERIS_TYPE":"0","OBJECT_ID":"2022-005P","TLE_LINE2":"2 51117  53.2141  48.0551 0001671  55.4167 127.9802 15.08779289  1308","TLE_LINE1":"1 51117U 22005P   22139.91667824  .00006620  00000-0  43434-3 0  9999","SITE":"AFETR","NORAD_CAT_ID":"51117","CLASSIFICATION_TYPE":"U","PERIAPSIS":"538.775","REF_FRAME":"TEME","DECAY_DATE":null,"RA_OF_ASC_NODE":"48.0551","OBJECT_NAME":"STARLINK-3391","REV_AT_EPOCH":"130","BSTAR":"0.00043434000000","ARG_OF_PERICENTER":"55.4167","OBJECT_TYPE":"PAYLOAD","COUNTRY_CODE":"US","MEAN_MOTION_DDOT":"0.0000000000000","LAUNCH_DATE":"2022-01-19","APOAPSIS":"541.087","ECCENTRICITY":"0.00016710","GP_ID":"203989647","MEAN_MOTION":"15.08779289","SEMIMAJOR_AXIS":"6918.066","MEAN_ELEMENT_THEORY":"SGP4","INCLINATION":"53.2141","EPOCH":"2022-05-19T22:00:00.999936","FILE":"3453812","ELEMENT_SET_NO":"999","RCS_SIZE":"LARGE","TIME_SYSTEM":"UTC","CENTER_NAME":"EARTH"},{"PERIOD":"95.439","MEAN_ANOMALY":"45.9531","MEAN_MOTION_DOT":"0.00013182","SITE":"AFETR","NORAD_CAT_ID":"51118","TLE_LINE1":"1 51118U 22005Q   22140.25001157  .00013182  00000-0  84530-3 0  9993","TLE_LINE2":"2 51118  53.2128  46.5590 0001650  48.9846  45.9531 15.08816015 20238","OBJECT_ID":"2022-005Q","EPHEMERIS_TYPE":"0","RA_OF_ASC_NODE":"46.5590","DECAY_DATE":null,"REF_FRAME":"TEME","PERIAPSIS":"538.677","CLASSIFICATION_TYPE":"U","BSTAR":"0.00084530000000","ARG_OF_PERICENTER":"48.9846","REV_AT_EPOCH":"2023","OBJECT_NAME":"STARLINK-3394","MEAN_MOTION_DDOT":"0.0000000000000","COUNTRY_CODE":"US","OBJECT_TYPE":"PAYLOAD","LAUNCH_DATE":"2022-01-19","APOAPSIS":"540.960","FILE":"3453976","EPOCH":"2022-05-20T06:00:00.999648","INCLINATION":"53.2128","MEAN_ELEMENT_THEORY":"SGP4","SEMIMAJOR_AXIS":"6917.954","MEAN_MOTION":"15.08816015","GP_ID":"203994775","ECCENTRICITY":"0.00016500","CENTER_NAME":"EARTH","TIME_SYSTEM":"UTC","RCS_SIZE":"LARGE","ELEMENT_SET_NO":"999"},{"RCS_SIZE":"LARGE","ELEMENT_SET_NO":"999","CENTER_NAME":"EARTH","TIME_SYSTEM":"UTC","GP_ID":"203998105","ECCENTRICITY":"0.00016990","FILE":"3454122","EPOCH":"2022-05-20T06:00:00.999648","INCLINATION":"53.2172","SEMIMAJOR_AXIS":"6917.883","MEAN_ELEMENT_THEORY":"SGP4","MEAN_MOTION":"15.08839189","LAUNCH_DATE":"2022-01-19","APOAPSIS":"540.923","COUNTRY_CODE":"US","OBJECT_TYPE":"PAYLOAD","MEAN_MOTION_DDOT":"0.0000000000000","REV_AT_EPOCH":"2023","OBJECT_NAME":"STARLINK-3390","BSTAR":"0.00072267000000","ARG_OF_PERICENTER":"43.3583","REF_FRAME":"TEME","CLASSIFICATION_TYPE":"U","PERIAPSIS":"538.573","RA_OF_ASC_NODE":"46.5596","DECAY_DATE":null,"EPHEMERIS_TYPE":"0","SITE":"AFETR","NORAD_CAT_ID":"51119","TLE_LINE2":"2 51119  53.2172  46.5596 0001699  43.3583 171.5189 15.08839189 20236","TLE_LINE1":"1 51119U 22005R   22140.25001157  .00011232  00000-0  72267-3 0  9992","OBJECT_ID":"2022-005R","MEAN_MOTION_DOT":"0.00011232","PERIOD":"95.438","MEAN_ANOMALY":"171.5189"},{"MEAN_MOTION_DDOT":"0.0000000000000","OBJECT_TYPE":"PAYLOAD","COUNTRY_CODE":"US","APOAPSIS":"541.038","LAUNCH_DATE":"2022-01-19","MEAN_MOTION":"15.08857095","MEAN_ELEMENT_THEORY":"SGP4","SEMIMAJOR_AXIS":"6917.828","INCLINATION":"53.2199","EPOCH":"2022-05-19T22:00:00.999936","FILE":"3453812","ECCENTRICITY":"0.00019440","GP_ID":"203988896","TIME_SYSTEM":"UTC","CENTER_NAME":"EARTH","ELEMENT_SET_NO":"999","RCS_SIZE":"LARGE","MEAN_ANOMALY":"195.7197","PERIOD":"95.436","MEAN_MOTION_DOT":"-0.00030741","OBJECT_ID":"2022-005S","TLE_LINE2":"2 51120  53.2199  48.0563 0001944  47.5548 195.7197 15.08857095  1308","TLE_LINE1":"1 51120U 22005S   22139.91667824 -.00030741  00000-0 -19207-2 0  9996","NORAD_CAT_ID":"51120","SITE":"AFETR","EPHEMERIS_TYPE":"0","DECAY_DATE":null,"RA_OF_ASC_NODE":"48.0563","CLASSIFICATION_TYPE":"U","PERIAPSIS":"538.348","REF_FRAME":"TEME","ARG_OF_PERICENTER":"47.5548","BSTAR":"-0.00192070000000","OBJECT_NAME":"STARLINK-3398","REV_AT_EPOCH":"130"},{"GP_ID":"203990147","ECCENTRICITY":"0.00017180","FILE":"3453812","EPOCH":"2022-05-19T22:00:00.999936","INCLINATION":"53.2134","SEMIMAJOR_AXIS":"6917.869","MEAN_ELEMENT_THEORY":"SGP4","MEAN_MOTION":"15.08843876","RCS_SIZE":"LARGE","ELEMENT_SET_NO":"999","CENTER_NAME":"EARTH","TIME_SYSTEM":"UTC","COUNTRY_CODE":"US","OBJECT_TYPE":"PAYLOAD","MEAN_MOTION_DDOT":"0.0000000000000","LAUNCH_DATE":"2022-01-19","APOAPSIS":"540.922","REF_FRAME":"TEME","PERIAPSIS":"538.545","CLASSIFICATION_TYPE":"U","RA_OF_ASC_NODE":"48.0564","DECAY_DATE":null,"REV_AT_EPOCH":"130","OBJECT_NAME":"STARLINK-3399","ARG_OF_PERICENTER":"52.4172","BSTAR":"-0.00022627000000","MEAN_MOTION_DOT":"-0.00003888","PERIOD":"95.437","MEAN_ANOMALY":"110.8966","EPHEMERIS_TYPE":"0","NORAD_CAT_ID":"51121","SITE":"AFETR","TLE_LINE1":"1 51121U 22005T   22139.91667824 -.00003888  00000-0 -22627-3 0  9990","TLE_LINE2":"2 51121  53.2134  48.0564 0001718  52.4172 110.8966 15.08843876  1300","OBJECT_ID":"2022-005T"},{"OBJECT_NAME":"STARLINK-3373","REV_AT_EPOCH":"130","BSTAR":"-0.00591180000000","ARG_OF_PERICENTER":"45.0189","REF_FRAME":"TEME","CLASSIFICATION_TYPE":"U","PERIAPSIS":"538.498","DECAY_DATE":null,"RA_OF_ASC_NODE":"48.0552","EPHEMERIS_TYPE":"0","OBJECT_ID":"2022-005U","NORAD_CAT_ID":"51122","SITE":"AFETR","TLE_LINE1":"1 51122U 22005U   22139.91667824 -.00093252  00000-0 -59118-2 0  9999","TLE_LINE2":"2 51122  53.2194  48.0552 0001641  45.0189 178.4072 15.08876630  1307","MEAN_MOTION_DOT":"-0.00093252","MEAN_ANOMALY":"178.4072","PERIOD":"95.435","ELEMENT_SET_NO":"999","RCS_SIZE":"LARGE","CENTER_NAME":"EARTH","TIME_SYSTEM":"UTC","GP_ID":"203989898","ECCENTRICITY":"0.00016410","SEMIMAJOR_AXIS":"6917.768","MEAN_ELEMENT_THEORY":"SGP4","MEAN_MOTION":"15.08876630","FILE":"3453812","EPOCH":"2022-05-19T22:00:00.999936","INCLINATION":"53.2194","LAUNCH_DATE":"2022-01-19","APOAPSIS":"540.769","OBJECT_TYPE":"PAYLOAD","COUNTRY_CODE":"US","MEAN_MOTION_DDOT":"0.0000000000000"},{"INCLINATION":"53.2192","EPOCH":"2022-05-19T22:00:00.999936","FILE":"3453812","MEAN_MOTION":"15.08839596","SEMIMAJOR_AXIS":"6917.882","MEAN_ELEMENT_THEORY":"SGP4","ECCENTRICITY":"0.00016510","GP_ID":"203989146","TIME_SYSTEM":"UTC","CENTER_NAME":"EARTH","RCS_SIZE":"LARGE","ELEMENT_SET_NO":"999","MEAN_MOTION_DDOT":"0.0000000000000","COUNTRY_CODE":"US","OBJECT_TYPE":"PAYLOAD","LAUNCH_DATE":"2022-01-19","APOAPSIS":"540.889","RA_OF_ASC_NODE":"48.0553","DECAY_DATE":null,"PERIAPSIS":"538.604","CLASSIFICATION_TYPE":"U","REF_FRAME":"TEME","BSTAR":"-0.00014156000000","ARG_OF_PERICENTER":"43.3045","REV_AT_EPOCH":"130","OBJECT_NAME":"STARLINK-3392","PERIOD":"95.438","MEAN_ANOMALY":"220.0391","MEAN_MOTION_DOT":"-0.00002540","TLE_LINE2":"2 51123  53.2192  48.0553 0001651  43.3045 220.0391 15.08839596  1308","TLE_LINE1":"1 51123U 22005V   22139.91667824 -.00002540  00000-0 -14156-3 0  9994","NORAD_CAT_ID":"51123","SITE":"AFETR","OBJECT_ID":"2022-005V","EPHEMERIS_TYPE":"0"},{"ELEMENT_SET_NO":"999","RCS_SIZE":"LARGE","TIME_SYSTEM":"UTC","CENTER_NAME":"EARTH","ECCENTRICITY":"0.00016780","GP_ID":"203989396","MEAN_MOTION":"15.08785066","SEMIMAJOR_AXIS":"6918.048","MEAN_ELEMENT_THEORY":"SGP4","INCLINATION":"53.2181","EPOCH":"2022-05-19T22:00:00.999936","FILE":"3453812","LAUNCH_DATE":"2022-01-19","APOAPSIS":"541.074","OBJECT_TYPE":"PAYLOAD","COUNTRY_CODE":"US","MEAN_MOTION_DDOT":"0.0000000000000","OBJECT_NAME":"STARLINK-3389","REV_AT_EPOCH":"130","BSTAR":"0.00109730000000","ARG_OF_PERICENTER":"52.5235","CLASSIFICATION_TYPE":"U","PERIAPSIS":"538.752","REF_FRAME":"TEME","DECAY_DATE":null,"RA_OF_ASC_NODE":"58.0442","EPHEMERIS_TYPE":"0","OBJECT_ID":"2022-005W","TLE_LINE1":"1 51124U 22005W   22139.91667824  .00017192  00000-0  10973-2 0  9994","TLE_LINE2":"2 51124  53.2181  58.0442 0001678  52.5235 335.8143 15.08785066  1309","NORAD_CAT_ID":"51124","SITE":"AFETR","MEAN_MOTION_DOT":"0.00017192","MEAN_ANOMALY":"335.8143","PERIOD":"95.441"}];
